{
    "links": {
        "self": "http://www.neowsapp.com/rest/v1/neo/3648842?api_key=iIulBulltgU6a56xZRHN4H3l9WmuAYTsLGpBGhQ2"
    },
    "id": "3648842",
    "neo_reference_id": "3648842",
    "name": "(2013 TO4)",
    "designation": "2013 TO4",
    "nasa_jpl_url": "http://ssd.jpl.nasa.gov/sbdb.cgi?sstr=3648842",
    "absolute_magnitude_h": 25.3,
    "estimated_diameter": {
        "kilometers": {
            "estimated_diameter_min": 0.0231502122,
            "estimated_diameter_max": 0.0517654482
        },
        "meters": {
            "estimated_diameter_min": 23.150212221,
            "estimated_diameter_max": 51.7654482198
        },
        "miles": {
            "estimated_diameter_min": 0.0143848705,
            "estimated_diameter_max": 0.0321655483
        },
        "feet": {
            "estimated_diameter_min": 75.9521422633,
            "estimated_diameter_max": 169.8341531374
        }
    },
    "is_potentially_hazardous_asteroid": false,
    "close_approach_data": [
        {
            "close_approach_date": "2013-10-08",
            "close_approach_date_full": "2013-Oct-08 22:26",
            "epoch_date_close_approach": 1381271160000,
            "relative_velocity": {
                "kilometers_per_second": "9.4754559528",
                "kilometers_per_hour": "34111.6414301899",
                "miles_per_hour": "21195.6474208866"
            },
            "miss_distance": {
                "astronomical": "0.0161210683",
                "lunar": "6.2710955687",
                "kilometers": "2411677.479804521",
                "miles": "1498546.8974075498"
            },
            "orbiting_body": "Earth"
        }
    ],
    "orbital_data": {
        "orbit_id": "6",
        "orbit_determination_date": "2017-04-06 08:44:23",
        "first_observation_date": "2013-10-03",
        "last_observation_date": "2013-10-08",
        "data_arc_in_days": 5,
        "observations_used": 44,
        "orbit_uncertainty": "7",
        "minimum_orbit_intersection": ".00991105",
        "jupiter_tisserand_invariant": "3.666",
        "epoch_osculation": "2459000.5",
        "eccentricity": ".5244109003702452",
        "semi_major_axis": "1.987822565182256",
        "inclination": "5.070558432266465",
        "ascending_node_longitude": "204.1474261241572",
        "orbital_period": "1023.68149177564",
        "perihelion_distance": ".9453867439987389",
        "perihelion_argument": "204.8608083262599",
        "aphelion_distance": "3.030258386365773",
        "perihelion_time": "2458649.722967100603",
        "mean_anomaly": "123.3584204250316",
        "mean_motion": ".3516718851442331",
        "equinox": "J2000",
        "orbit_class": {
            "orbit_class_type": "APO",
            "orbit_class_description": "Near-Earth asteroid orbits which cross the Earth’s orbit similar to that of 1862 Apollo",
            "orbit_class_range": "a (semi-major axis) > 1.0 AU; q (perihelion) < 1.017 AU"
        }
    },
    "is_sentry_object": false
}